start=new Date('2021-12-20T00:00:00.000Z').valueOf();
sats=[{"PERIOD":"95.592","OBJECT_NAME":"STARLINK-2652","GP_ID":"192042083","CENTER_NAME":"EARTH","DECAY_DATE":null,"MEAN_MOTION_DOT":"0.00001621","MEAN_MOTION":"15.06405065","ELEMENT_SET_NO":"999","FILE":"3244825","RA_OF_ASC_NODE":"259.2154","BSTAR":"0.00012769000000","COUNTRY_CODE":"US","SITE":"AFETR","TLE_LINE1":"1 48451U 21040Z   21353.73764938  .00001621  00000-0  12769-3 0  9998","TLE_LINE2":"2 48451  53.0565 259.2154 0002642  64.4484 295.6778 15.06405065 34373","SEMIMAJOR_AXIS":"6925.333","CLASSIFICATION_TYPE":"U","PERIAPSIS":"545.368","MEAN_MOTION_DDOT":"0.0000000000000","EPOCH":"2021-12-19T17:42:12.906432","REV_AT_EPOCH":"3437","EPHEMERIS_TYPE":"0","RCS_SIZE":"LARGE","OBJECT_ID":"2021-040Z","TIME_SYSTEM":"UTC","ECCENTRICITY":"0.00026420","ARG_OF_PERICENTER":"64.4484","NORAD_CAT_ID":"48451","REF_FRAME":"TEME","APOAPSIS":"549.028","OBJECT_TYPE":"PAYLOAD","MEAN_ANOMALY":"295.6778","LAUNCH_DATE":"2021-05-09","INCLINATION":"53.0565","MEAN_ELEMENT_THEORY":"SGP4"},{"MEAN_MOTION_DOT":"0.00002948","DECAY_DATE":null,"PERIOD":"95.591","OBJECT_NAME":"STARLINK-2703","GP_ID":"192042691","CENTER_NAME":"EARTH","FILE":"3244825","RA_OF_ASC_NODE":"258.9028","MEAN_MOTION":"15.06410621","ELEMENT_SET_NO":"999","SITE":"AFETR","BSTAR":"0.00021666000000","COUNTRY_CODE":"US","TLE_LINE2":"2 48452  53.0558 258.9028 0002350  66.6255 293.4981 15.06410621 34385","TLE_LINE1":"1 48452U 21040AA  21353.80674255  .00002948  00000-0  21666-3 0  9998","MEAN_MOTION_DDOT":"0.0000000000000","EPOCH":"2021-12-19T19:21:42.556320","SEMIMAJOR_AXIS":"6925.316","PERIAPSIS":"545.554","CLASSIFICATION_TYPE":"U","RCS_SIZE":"LARGE","ECCENTRICITY":"0.00023500","OBJECT_ID":"2021-040AA","ARG_OF_PERICENTER":"66.6255","TIME_SYSTEM":"UTC","REV_AT_EPOCH":"3438","EPHEMERIS_TYPE":"0","APOAPSIS":"548.808","OBJECT_TYPE":"PAYLOAD","NORAD_CAT_ID":"48452","REF_FRAME":"TEME","INCLINATION":"53.0558","LAUNCH_DATE":"2021-05-09","MEAN_ELEMENT_THEORY":"SGP4","MEAN_ANOMALY":"293.4981"},{"SEMIMAJOR_AXIS":"6925.339","PERIAPSIS":"545.608","CLASSIFICATION_TYPE":"U","MEAN_MOTION_DDOT":"0.0000000000000","EPOCH":"2021-12-19T17:36:56.100096","REV_AT_EPOCH":"3437","EPHEMERIS_TYPE":"0","RCS_SIZE":"LARGE","ECCENTRICITY":"0.00023050","OBJECT_ID":"2021-040AB","ARG_OF_PERICENTER":"65.2936","TIME_SYSTEM":"UTC","NORAD_CAT_ID":"48453","REF_FRAME":"TEME","APOAPSIS":"548.800","OBJECT_TYPE":"PAYLOAD","MEAN_ANOMALY":"294.8293","INCLINATION":"53.0542","LAUNCH_DATE":"2021-05-09","MEAN_ELEMENT_THEORY":"SGP4","PERIOD":"95.592","OBJECT_NAME":"STARLINK-2620","CENTER_NAME":"EARTH","GP_ID":"192043298","DECAY_DATE":null,"MEAN_MOTION_DOT":"0.00002622","MEAN_MOTION":"15.06403169","ELEMENT_SET_NO":"999","FILE":"3244825","RA_OF_ASC_NODE":"259.2251","BSTAR":"0.00019486000000","COUNTRY_CODE":"US","SITE":"AFETR","TLE_LINE1":"1 48453U 21040AB  21353.73398264  .00002622  00000-0  19486-3 0  9990","TLE_LINE2":"2 48453  53.0542 259.2251 0002305  65.2936 294.8293 15.06403169 34371"},{"TLE_LINE1":"1 48454U 21040AC  21353.86296271  .00004234  00000-0  30285-3 0  9991","TLE_LINE2":"2 48454  53.0563 258.6510 0002528  60.8361 299.2881 15.06415212 34392","BSTAR":"0.00030285000000","COUNTRY_CODE":"US","SITE":"AFETR","ELEMENT_SET_NO":"999","MEAN_MOTION":"15.06415212","FILE":"3244825","RA_OF_ASC_NODE":"258.6510","CENTER_NAME":"EARTH","GP_ID":"192042286","PERIOD":"95.591","OBJECT_NAME":"STARLINK-2654","MEAN_MOTION_DOT":"0.00004234","DECAY_DATE":null,"MEAN_ANOMALY":"299.2881","LAUNCH_DATE":"2021-05-09","INCLINATION":"53.0563","MEAN_ELEMENT_THEORY":"SGP4","NORAD_CAT_ID":"48454","REF_FRAME":"TEME","APOAPSIS":"548.918","OBJECT_TYPE":"PAYLOAD","EPHEMERIS_TYPE":"0","REV_AT_EPOCH":"3439","TIME_SYSTEM":"UTC","ARG_OF_PERICENTER":"60.8361","OBJECT_ID":"2021-040AC","ECCENTRICITY":"0.00025280","RCS_SIZE":"LARGE","PERIAPSIS":"545.416","CLASSIFICATION_TYPE":"U","SEMIMAJOR_AXIS":"6925.302","EPOCH":"2021-12-19T20:42:39.978144","MEAN_MOTION_DDOT":"0.0000000000000"},{"RCS_SIZE":"LARGE","ECCENTRICITY":"0.00021870","ARG_OF_PERICENTER":"67.9122","TIME_SYSTEM":"UTC","OBJECT_ID":"2021-040AD","REV_AT_EPOCH":"3438","EPHEMERIS_TYPE":"0","MEAN_MOTION_DDOT":"0.0000000000000","EPOCH":"2021-12-19T20:37:23.169216","SEMIMAJOR_AXIS":"6925.343","PERIAPSIS":"545.693","CLASSIFICATION_TYPE":"U","LAUNCH_DATE":"2021-05-09","INCLINATION":"53.0544","MEAN_ELEMENT_THEORY":"SGP4","MEAN_ANOMALY":"292.2099","OBJECT_TYPE":"PAYLOAD","APOAPSIS":"548.722","REF_FRAME":"TEME","NORAD_CAT_ID":"48455","RA_OF_ASC_NODE":"258.6678","FILE":"3244825","MEAN_MOTION":"15.06401882","ELEMENT_SET_NO":"999","MEAN_MOTION_DOT":"0.00001764","DECAY_DATE":null,"OBJECT_NAME":"STARLINK-2497","PERIOD":"95.592","CENTER_NAME":"EARTH","GP_ID":"192042489","TLE_LINE2":"2 48455  53.0544 258.6678 0002187  67.9122 292.2099 15.06401882 34382","TLE_LINE1":"1 48455U 21040AD  21353.85929594  .00001764  00000-0  13730-3 0  9993","SITE":"AFETR","COUNTRY_CODE":"US","BSTAR":"0.00013730000000"},{"TLE_LINE1":"1 48456U 21040AE  21353.85560593  .00003046  00000-0  22328-3 0  9992","TLE_LINE2":"2 48456  53.0547 258.6899 0002259  68.4167 291.7062 15.06407822 34380","BSTAR":"0.00022328000000","COUNTRY_CODE":"US","SITE":"AFETR","ELEMENT_SET_NO":"999","MEAN_MOTION":"15.06407822","FILE":"3244825","RA_OF_ASC_NODE":"258.6899","GP_ID":"192043096","CENTER_NAME":"EARTH","PERIOD":"95.592","OBJECT_NAME":"STARLINK-2508","MEAN_MOTION_DOT":"0.00003046","DECAY_DATE":null,"MEAN_ANOMALY":"291.7062","LAUNCH_DATE":"2021-05-09","MEAN_ELEMENT_THEORY":"SGP4","INCLINATION":"53.0547","NORAD_CAT_ID":"48456","REF_FRAME":"TEME","APOAPSIS":"548.754","OBJECT_TYPE":"PAYLOAD","EPHEMERIS_TYPE":"0","REV_AT_EPOCH":"3438","OBJECT_ID":"2021-040AE","ECCENTRICITY":"0.00022590","TIME_SYSTEM":"UTC","ARG_OF_PERICENTER":"68.4167","RCS_SIZE":"LARGE","PERIAPSIS":"545.625","CLASSIFICATION_TYPE":"U","SEMIMAJOR_AXIS":"6925.325","EPOCH":"2021-12-19T20:32:04.352352","MEAN_MOTION_DDOT":"0.0000000000000"},{"MEAN_MOTION_DOT":"0.00002449","DECAY_DATE":null,"CENTER_NAME":"EARTH","GP_ID":"192042894","PERIOD":"95.592","OBJECT_NAME":"STARLINK-2698","FILE":"3244825","RA_OF_ASC_NODE":"263.9667","ELEMENT_SET_NO":"999","MEAN_MOTION":"15.06401066","SITE":"AFETR","BSTAR":"0.00018326000000","COUNTRY_CODE":"US","TLE_LINE2":"2 48458  53.0565 263.9667 0002552  62.2874 297.8374 15.06401066 35026","TLE_LINE1":"1 48458U 21040AG  21353.79338319  .00002449  00000-0  18326-3 0  9995","EPOCH":"2021-12-19T19:02:28.307616","MEAN_MOTION_DDOT":"0.0000000000000","CLASSIFICATION_TYPE":"U","PERIAPSIS":"545.443","SEMIMAJOR_AXIS":"6925.345","OBJECT_ID":"2021-040AG","ECCENTRICITY":"0.00025520","TIME_SYSTEM":"UTC","ARG_OF_PERICENTER":"62.2874","RCS_SIZE":"LARGE","EPHEMERIS_TYPE":"0","REV_AT_EPOCH":"3502","APOAPSIS":"548.978","OBJECT_TYPE":"PAYLOAD","NORAD_CAT_ID":"48458","REF_FRAME":"TEME","INCLINATION":"53.0565","LAUNCH_DATE":"2021-05-09","MEAN_ELEMENT_THEORY":"SGP4","MEAN_ANOMALY":"297.8374"},{"RA_OF_ASC_NODE":"264.1190","FILE":"3244825","ELEMENT_SET_NO":"999","MEAN_MOTION":"15.06411356","MEAN_MOTION_DOT":"0.00004634","DECAY_DATE":null,"CENTER_NAME":"EARTH","GP_ID":"192041882","OBJECT_NAME":"STARLINK-2579","PERIOD":"95.591","TLE_LINE2":"2 48459  53.0552 264.1190 0002375  61.7066 298.4162 15.06411356 34313","TLE_LINE1":"1 48459U 21040AH  21353.76020878  .00004634  00000-0  32971-3 0  9991","SITE":"AFETR","COUNTRY_CODE":"US","BSTAR":"0.00032971000000","TIME_SYSTEM":"UTC","OBJECT_ID":"2021-040AH","ECCENTRICITY":"0.00023750","ARG_OF_PERICENTER":"61.7066","RCS_SIZE":"LARGE","EPHEMERIS_TYPE":"0","REV_AT_EPOCH":"3431","EPOCH":"2021-12-19T18:14:42.038592","MEAN_MOTION_DDOT":"0.0000000000000","PERIAPSIS":"545.534","CLASSIFICATION_TYPE":"U","SEMIMAJOR_AXIS":"6925.314","LAUNCH_DATE":"2021-05-09","INCLINATION":"53.0552","MEAN_ELEMENT_THEORY":"SGP4","MEAN_ANOMALY":"298.4162","OBJECT_TYPE":"PAYLOAD","APOAPSIS":"548.824","REF_FRAME":"TEME","NORAD_CAT_ID":"48459"},{"EPOCH":"2021-12-19T17:54:50.180832","MEAN_MOTION_DDOT":"0.0000000000000","PERIAPSIS":"545.649","CLASSIFICATION_TYPE":"U","SEMIMAJOR_AXIS":"6925.347","ECCENTRICITY":"0.00022570","OBJECT_ID":"2021-040AJ","TIME_SYSTEM":"UTC","ARG_OF_PERICENTER":"65.5622","RCS_SIZE":"LARGE","EPHEMERIS_TYPE":"0","REV_AT_EPOCH":"3481","APOAPSIS":"548.775","OBJECT_TYPE":"PAYLOAD","NORAD_CAT_ID":"48460","REF_FRAME":"TEME","INCLINATION":"53.0556","LAUNCH_DATE":"2021-05-09","MEAN_ELEMENT_THEORY":"SGP4","MEAN_ANOMALY":"294.5602","MEAN_MOTION_DOT":"0.00001798","DECAY_DATE":null,"CENTER_NAME":"EARTH","GP_ID":"192042084","PERIOD":"95.592","OBJECT_NAME":"STARLINK-2582","FILE":"3244825","RA_OF_ASC_NODE":"264.1783","ELEMENT_SET_NO":"999","MEAN_MOTION":"15.06400621","SITE":"AFETR","BSTAR":"0.00013962000000","COUNTRY_CODE":"US","TLE_LINE2":"2 48460  53.0556 264.1783 0002257  65.5622 294.5602 15.06400621 34810","TLE_LINE1":"1 48460U 21040AJ  21353.74641413  .00001798  00000-0  13962-3 0  9992"},{"SITE":"AFETR","BSTAR":"0.00017379000000","COUNTRY_CODE":"US","TLE_LINE2":"2 48461  53.0548 263.5109 0002013  66.6517 293.4684 15.06407128 34336","TLE_LINE1":"1 48461U 21040AK  21353.89384541  .00002308  00000-0  17379-3 0  9999","DECAY_DATE":null,"MEAN_MOTION_DOT":"0.00002308","GP_ID":"192042692","CENTER_NAME":"EARTH","PERIOD":"95.592","OBJECT_NAME":"STARLINK-2693","FILE":"3244825","RA_OF_ASC_NODE":"263.5109","ELEMENT_SET_NO":"999","MEAN_MOTION":"15.06407128","APOAPSIS":"548.586","OBJECT_TYPE":"PAYLOAD","NORAD_CAT_ID":"48461","REF_FRAME":"TEME","LAUNCH_DATE":"2021-05-09","INCLINATION":"53.0548","MEAN_ELEMENT_THEORY":"SGP4","MEAN_ANOMALY":"293.4684","EPOCH":"2021-12-19T21:27:08.243424","MEAN_MOTION_DDOT":"0.0000000000000","PERIAPSIS":"545.798","CLASSIFICATION_TYPE":"U","SEMIMAJOR_AXIS":"6925.327","ECCENTRICITY":"0.00020130","TIME_SYSTEM":"UTC","ARG_OF_PERICENTER":"66.6517","OBJECT_ID":"2021-040AK","RCS_SIZE":"LARGE","EPHEMERIS_TYPE":"0","REV_AT_EPOCH":"3433"}];
